[{"OBJECT_NAME":"PELICAN-6","OBJECT_ID":"2025-276AP","EPOCH":"2026-03-09T16:58:12.890496","MEAN_MOTION":15.2637798,"ECCENTRICITY":0.0003569,"INCLINATION":97.4276,"RA_OF_ASC_NODE":144.2072,"ARG_OF_PERICENTER":157.8575,"MEAN_ANOMALY":202.2819,"EPHEMERIS_TYPE":0,"CLASSIFICATION_TYPE":"U","NORAD_CAT_ID":66703,"ELEMENT_SET_NO":999,"REV_AT_EPOCH":1533,"BSTAR":0.0029725783,"MEAN_MOTION_DOT":0.00077979,"MEAN_MOTION_DDOT":0},{"OBJECT_NAME":"STARLINK-36511","OBJECT_ID":"2026-008G","EPOCH":"2026-03-09T09:31:29.795232","MEAN_MOTION":15.27593687,"ECCENTRICITY":0.00031759,"INCLINATION":43.0004,"RA_OF_ASC_NODE":207.2129,"ARG_OF_PERICENTER":282.3495,"MEAN_ANOMALY":77.7001,"EPHEMERIS_TYPE":0,"CLASSIFICATION_TYPE":"U","NORAD_CAT_ID":67451,"ELEMENT_SET_NO":999,"REV_AT_EPOCH":952,"BSTAR":0.0010297545,"MEAN_MOTION_DOT":0.00028197,"MEAN_MOTION_DDOT":0}]
